STARLINK-1328
1 15576C 20025AX  21326.16822613  .00006889  00000-0  46159-3 0  3262
2 15576  53.0536 277.9866 0001835  64.2289  20.9302 15.06388109    12
